{
  "norad_id": 62987,
  "name": "STARLINK-11539 [DTC]",
  "history": [
    {
      "epoch": "2026-03-28T19:59:25.977120Z",
      "apogee_km": 357.2962883529781,
      "perigee_km": 355.1305212627922,
      "latitude_deg": 1.5258733588358167e-05,
      "longitude_deg": 119.91865968702763,
      "height_km": 355.7020677736382,
      "semi_major_axis_km": 6734.350404807885,
      "eccentricity": 0.0001608,
      "inclination_deg": 43.0012,
      "raan_deg": 246.0246,
      "arg_perigee_deg": 285.2085,
      "mean_anomaly_deg": 74.8605,
      "mean_motion_rev_day": 15.70938549
    }
  ]
}