{"fetched_at":"2026-03-29T16:36:15Z","count":15609,"tles":[{"name":"STARLINK-11539 [DTC]","line1":"1 62987U 25031G   26087.83293955  .00273981  00000+0  20605-2 0  9994","line2":"2 62987  43.0012 246.0246 0001608 285.2085  74.8605 15.70938549 65757","category":"Starlink"}]}